[
    {
        "Altitude(m)": 607895.7853780983,
        "Argument of Periapsis(deg)": 0.0,
        "Eccentricity": 0.0,
        "Inclination(deg)": 60.0,
        "Latitude(deg)": 40.99825289732235,
        "Longitude(deg)": -54.9113941975979,
        "Mean Anomaly(deg)": -229.09089999999998,
        "RAAN(deg)": 255.0,
        "Satellite Name": "Test1 1130",
        "Satellite Number": 1130,
        "Semi-Major Axis(m)": 6980739.136638005,
        "Time(s)": 0
    },
    {
        "Altitude(m)": 607795.0984484276,
        "Argument of Periapsis(deg)": 0.00010418945913296404,
        "Eccentricity": 0.0,
        "Inclination(deg)": 60.0,
        "Latitude(deg)": 40.53057755033923,
        "Longitude(deg)": -54.41480034785972,
        "Mean Anomaly(deg)": -228.4707938545382,
        "RAAN(deg)": 254.99957995086027,
        "Satellite Name": "Test1 1130",
        "Satellite Number": 1130,
        "Semi-Major Axis(m)": 6980739.136638005,
        "Time(s)": 10
    }
]